#aV2013  7 15  0  0  0.00000000     288 DD+AD WGS84 FIT  NGA
## 1749  86400.00000000   300.00000000 56488 0.0000000000000
+   31     1  2  3  4  5  6  7  8  9 10 11 12 13 14 15 16 17
+         18 19 20 21 22 23 24 25 26 27 28 29 31 32  0  0  0
+          0  0  0  0  0  0  0  0  0  0  0  0  0  0  0  0  0
+          0  0  0  0  0  0  0  0  0  0  0  0  0  0  0  0  0
+          0  0  0  0  0  0  0  0  0  0  0  0  0  0  0  0  0
++         2  2  2  2  2  2  2  2  2  2  2  2  2  2  2  2  2
++         2  2  2  2  2  2  2  2  2  2  2  2  2  2  2  0  0
++         0  0  0  0  0  0  0  0  0  0  0  0  0  0  0  0  0
++         0  0  0  0  0  0  0  0  0  0  0  0  0  0  0  0  0
++         0  0  0  0  0  0  0  0  0  0  0  0  0  0  0  0  0
%c cc cc ccc ccc cccc cccc cccc cccc ccccc ccccc ccccc ccccc
%c cc cc ccc ccc cccc cccc cccc cccc ccccc ccccc ccccc ccccc
%f  0.0000000  0.000000000  0.00000000000  0.000000000000000
%f  0.0000000  0.000000000  0.00000000000  0.000000000000000
%i    0    0    0    0      0      0      0      0         0
%i    0    0    0    0      0      0      0      0         0
/*      NGA, ST. LOUIS,MO.                                  
/*   EPHEMERIS COMPUTED FROM  1 DAYS OF DATA
/*   EPOCHA SMOOTHER  
/* CCCCCCCCCCCCCCCCCCCCCCCCCCCCCCCCCCCCCCCCCCCCCCCCCCCCCCCCC
*  2013  7 15 19 45  0.00000000                                                 
P  1  13729.173333 -20490.789819   9705.465898     50.417549                    
V  1  -1300.022128  12590.904436  28460.683316      0.050651                    
P  2 -15322.093124  -3032.674845 -21240.722927    441.886671                    
V  2   7432.648926 -26584.377917  -2053.691161      0.018135                    
P  3  21947.956418   4949.496238  13749.837627    233.094092                    
V  3  12377.830674  13797.740385 -23613.640673      0.048513                    
P  4 -10587.054926 -14562.135062 -19726.120683    273.158068                    
V  4   8829.623450 -23012.312971  12704.548027      0.102784                    
P  5 -25842.164743    968.656966  -6409.486711   -398.615133                    
V  5   7265.854708  -4620.882611 -29964.535784     -0.004633                    
P  6  22124.929226  11109.765671  10184.814280    141.069263                    
V  6   7270.642868  10805.584666 -27400.586333     -0.178503                    
P  7   5108.502511 -25409.498786   5029.359518    236.419384                    
V  7   4480.282665  -5202.383773 -31421.125194      0.042162                    
P  8  -1123.252160 -21489.764357  15257.244484      7.403699                    
V  8   9341.762491 -17015.228479 -24035.258797      0.002462                    
P  9  -5652.673384 -19204.362732  16839.184561    254.700450                    
V  9   8277.509799 -20938.048546 -20535.325971      0.025807                    
P 10 -15694.147936 -10871.010668 -18924.773173    -87.079692                    
V 10  22617.302428  -5903.210324 -15194.214142     -0.013521                    
P 11  13505.315880 -15274.117658  16444.116709   -401.095455                    
V 11   3014.128398  22135.647438  17874.953247     -0.035076                    
P 12 -22455.842509  10430.590993  -9364.749310    144.972722                    
V 12 -12033.730794    146.063889  29353.763343      0.021157                    
P 13     35.179231 -19869.166907 -17691.865365     99.656983                    
V 13  14270.552399  17058.837424 -19411.152274     -0.036693                    
P 14  15266.909350  21755.491658   2106.460063    219.311086                    
V 14  -3258.586062   -504.227671  31794.231401     -0.004599                    
P 15 -14658.518961   6920.391209  21046.629326   -127.754980                    
V 15 -18224.605997 -19695.121911  -5949.640754     -0.016815                    
P 16  25882.961385    284.210233  -6734.481120   -250.147049                    
V 16  -8032.546078   3007.618882 -30549.099444      0.005152                    
P 17 -15040.683931 -21792.000679   3557.627316     -1.278216                    
V 17   4544.929836   1690.940060  31298.351792     -0.038055                    
P 18   -736.068572  16460.726955  21209.637783    263.804274                    
V 18 -25716.210152   4846.405585  -5101.821978      0.019088                    
P 19  17025.500538   -926.110834  20370.344838   -389.038671                    
V 19  14998.273487  21222.767519 -11092.393331     -0.029275                    
P 20  17610.494132 -15037.280413 -13115.768077    109.564170                    
V 20  16710.311409  -1428.949827  24466.568753      0.023016                    
P 21  -1076.544520  24952.464731   8810.016890   -308.517690                    
V 21  -6749.601968   8984.053500 -28634.985209     -0.019694                    
P 22  12194.815047  12834.839806  20038.134059    175.744790                    
V 22 -24280.753118   6512.089642  10565.867321      0.016867                    
P 23   8402.749275 -13233.509059 -21314.191333     66.661734                    
V 23  18644.440858  19989.296896  -5440.749038     -0.035398                    
P 24 -14972.537979  17711.638331  12894.769607    -10.050243                    
V 24   2615.328104 -16374.748936  25544.734808     -0.006670                    
P 25 -10816.751107  15462.215251 -18710.571214    122.634176                    
V 25 -23354.238666   3872.938653  16849.157388      0.051258                    
P 26 -19539.894477  -9177.058586  15047.447786     98.176762                    
V 26 -10768.396371 -17046.096255 -23082.666950      0.167227                    
P 27  20953.518449   8460.102250  13958.042394    -11.204681                    
V 27  10367.821187  14548.660755 -24359.788159     -0.047392                    
P 28  -7804.202897 -13617.138977  22036.766381    275.987638                    
V 28  26140.336098  -4402.522164   6546.988668      0.031211                    
P 29   -901.865831  19005.001653 -18504.707303    453.785988                    
V 29 -16034.788627 -17316.554519 -16916.098724      0.032564                    
P 31   9636.343600  13763.070668 -20328.024797    320.781457                    
V 31  -9559.755178  24431.209990  12181.452879      0.011082                    
P 32  24287.728109  -7692.324413  -6335.464196   -558.114366                    
V 32   8720.962755   2435.020341  30410.007602      0.008197                    
EOF
